satname,norad_id,inclination_deg,eccentricity,mean_motion_rev_per_day,perigee_km,apogee_km,l1,l2
STARLINK-1493,45759,53.0541,0.0001639,15.06401671,546.0713727794255,548.341500357933,1 45759U 20038AF  25333.20505224  .00002838  00000+0  20931-3 0  9997,2 45759  53.0541 307.7075 0001639  98.1854 261.9321 15.06401671301327
STARLINK-1494,45760,53.0535,0.0005592,15.54063553,401.0830711100707,408.6691929969602,1 45760U 20038AG  25333.56566181  .00038572  00000+0  58890-3 0  9996,2 45760  53.0535 281.6503 0005592  95.3618 264.8030 15.54063553301737
STARLINK-1502,45764,53.0579,0.0001704,15.06400069,546.031267104986,548.3914258214618,1 45764U 20038AL  25333.63630444  .00001265  00000+0  10379-3 0  9991,2 45764  53.0579 305.7777 0001704 101.8796 258.2384 15.06400069301408
STARLINK-1470,45772,53.0488,0.00064,15.19963285,501.5456525277459,510.3572857682557,1 45772U 20038AU  25333.58350308  .00011553  00000+0  54408-3 0  9994,2 45772  53.0488 275.9451 0006400  32.8231 327.3160 15.19963285301811
STARLINK-1482,45773,53.054,0.0001401,15.06403504,546.2305788753638,548.1710585321644,1 45773U 20038AV  25333.60129346  .00004206  00000+0  30105-3 0  9999,2 45773  53.0540 285.9320 0001401  85.6783 274.4366 15.06403504301674
STARLINK-1496,45780,53.053,0.0001097,15.06400355,546.4507592971704,547.970180532071,1 45780U 20038BC  25333.10369542  .00003429  00000+0  24895-3 0  9991,2 45780  53.0530 288.1650 0001097  81.4045 278.7068 15.06400355301585
STARLINK-1497,45781,53.0356,0.0007319,15.63367834,372.9921579383845,382.88169895484407,1 45781U 20038BD  25333.91670139  .00150865  00000+0  15829-2 0  9991,2 45781  53.0356 218.9312 0007319  79.5189 190.2196 15.63367834  5935
STARLINK-1510,45784,53.0315,0.0003506,15.83130621,319.24470657869733,323.9425576979529,1 45784U 20038BG  25333.91670139  .00276323  00000+0  12234-2 0  9999,2 45784  53.0315 191.2512 0003506 160.6289  79.3749 15.83130621  5929
STARLINK-1513,45786,53.056,0.0001546,15.06394978,546.1562884211162,548.2976109543588,1 45786U 20038BJ  25333.59760289  .00000059  00000+0  22849-4 0  9997,2 45786  53.0560 285.9494 0001546  89.5167 270.5999 15.06394978301674
STARLINK-1522,46027,53.053,0.000124,15.06398111,546.358603518177,548.0760913963468,1 46027U 20055A   25333.84364647  .00002420  00000+0  18127-3 0  9998,2 46027  53.0530 214.8448 0001240  93.9400 266.1730 15.06398111293835
STARLINK-1523,46028,53.0554,0.0001552,15.06390595,546.1655644888297,548.3152016285321,1 46028U 20055B   25333.06223314  .00001027  00000+0  87868-4 0  9999,2 46028  53.0554 218.3558 0001552  94.1074 266.0093 15.06390595293737
STARLINK-1526,46029,53.0537,0.0001447,15.06393161,546.2304175982445,548.2346195369182,1 46029U 20055C   25332.98851670  .00002552  00000+0  19020-3 0  9990,2 46029  53.0537 218.6825 0001447  94.8842 265.2312 15.06393161293717
STARLINK-1555,46032,53.0552,0.0001465,15.06391052,546.2244148238569,548.2535499867026,1 46032U 20055F   25333.83627279  .00001743  00000+0  13591-3 0  9993,2 46032  53.0552 214.8755 0001465  86.4566 273.6590 15.06391052293840
STARLINK-1556,46033,53.0534,0.0001738,15.06399991,546.0079599378178,548.4152111061458,1 46033U 20055G   25333.81784645  .00006667  00000+0  46602-3 0  9992,2 46033  53.0534 214.9595 0001738  89.5386 270.5802 15.06399991293810
STARLINK-1557,46034,53.0524,0.0001385,15.06399255,546.2546801654044,548.1730023484324,1 46034U 20055H   25333.82152150  .00001140  00000+0  95418-4 0  9995,2 46034  53.0524 214.9419 0001385  91.6500 268.4647 15.06399255293811
STARLINK-1558,46035,53.0518,0.0001956,15.06390923,545.8847741561494,548.5939813951354,1 46035U 20055J   25333.82890735  .00011523  00000+0  79139-3 0  9991,2 46035  53.0518 214.9117 0001956  96.4270 263.6942 15.06390923293842
STARLINK-1560,46036,53.0542,0.0001448,15.06399228,546.2111331943033,548.216714821896,1 46036U 20055K   25333.81416346  .00008191  00000+0  56817-3 0  9998,2 46036  53.0542 214.9786 0001448  89.4288 270.6867 15.06399228293840
STARLINK-1567,46038,53.053,0.0001752,15.06403846,545.9864515250847,548.4130895294775,1 46038U 20055M   25333.82521608  .00003648  00000+0  26367-3 0  9998,2 46038  53.0530 214.9247 0001752 107.7699 252.3481 15.06403846293839
STARLINK-1569,46039,53.0541,0.0001882,15.06386439,545.9497623412071,548.556479182661,1 46039U 20055N   25333.83259537  .00011193  00000+0  76940-3 0  9995,2 46039  53.0541 214.8955 0001882 111.6231 248.4958 15.06386439293830
STARLINK-1582,46043,53.0547,0.0001383,15.06402438,546.2463111573206,548.1618605016611,1 46043U 20055S   25333.83995566  .00000024  00000+0  20529-4 0  9993,2 46043  53.0547 214.8602 0001383 100.8654 259.2491 15.06402438293835
STARLINK-1591,46045,53.0538,0.0001427,15.06393672,546.2427024079616,548.219202421581,1 46045U 20055U   25333.53402889  .00002029  00000+0  15510-3 0  9993,2 46045  53.0538 216.2352 0001427  86.8505 273.2648 15.06393672293774
STARLINK-1524,46047,53.0525,0.0001565,15.06399926,546.1279676528175,548.2956018224395,1 46047U 20055W   25333.81877115  .00005807  00000+0  40841-3 0  9996,2 46047  53.0525 204.9572 0001565 106.6466 253.4695 15.06399926293972
STARLINK-1527,46048,53.0531,0.0001526,15.06407732,546.1310559995272,548.2446651469736,1 46048U 20055X   25333.81508147  .00002046  00000+0  15618-3 0  9999,2 46048  53.0531 204.9710 0001526  88.0078 272.1086 15.06407732293958
STARLINK-1540,46051,53.0528,0.0001548,15.06395902,546.1520718455031,548.2961636475575,1 46051U 20055AA  25333.05208689  .00002442  00000+0  18277-3 0  9991,2 46051  53.0528 208.3972 0001548  85.1207 274.9959 15.06395902293877
STARLINK-1541,46052,53.0539,0.0001378,15.0640162,546.2522805289518,548.1609052231488,1 46052U 20055AB  25333.83351109  .00002448  00000+0  18316-3 0  9994,2 46052  53.0539 204.8886 0001378  86.9447 273.1700 15.06401620293950
STARLINK-1543,46053,53.0534,0.0001576,15.06391395,546.1464920603239,548.3293702386227,1 46053U 20055AC  25333.83719780  .00001864  00000+0  14404-3 0  9993,2 46053  53.0534 204.8718 0001576  88.9665 271.1505 15.06391395293985
STARLINK-1548,46054,53.0514,0.0001291,15.06401527,546.3128160125216,548.1009398017986,1 46054U 20055AD  25333.64552846  .00003394  00000+0  24662-3 0  9998,2 46054  53.0514 205.7330 0001291  93.9927 266.1209 15.06401527293956
STARLINK-1554,46055,53.0537,0.000158,15.06401199,546.113678686861,548.3020876699456,1 46055U 20055AE  25333.82982635  .00002809  00000+0  20736-3 0  9990,2 46055  53.0537 204.9032 0001580  89.7028 270.4142 15.06401199293980
